{
  "links" : {
    "next" : "https://api.nasa.gov/neo/rest/v1/feed?start_date=1999-02-09&end_date=1999-02-09&detailed=true&api_key=t0TVs3DtDT2H8Oy2Zy8m2eVrNsAVKAexjcZXUckd",
    "prev" : "https://api.nasa.gov/neo/rest/v1/feed?start_date=1999-02-07&end_date=1999-02-07&detailed=true&api_key=t0TVs3DtDT2H8Oy2Zy8m2eVrNsAVKAexjcZXUckd",
    "self" : "https://api.nasa.gov/neo/rest/v1/feed?start_date=1999-02-08&end_date=1999-02-08&detailed=true&api_key=t0TVs3DtDT2H8Oy2Zy8m2eVrNsAVKAexjcZXUckd"
  },
  "element_count" : 7,
  "near_earth_objects" : {
    "1999-02-08" : [ {
      "links" : {
        "self" : "https://api.nasa.gov/neo/rest/v1/neo/3580964?api_key=t0TVs3DtDT2H8Oy2Zy8m2eVrNsAVKAexjcZXUckd"
      },
      "neo_reference_id" : "3580964",
      "name" : "(2011 TO)",
      "nasa_jpl_url" : "http://ssd.jpl.nasa.gov/sbdb.cgi?sstr=3580964",
      "absolute_magnitude_h" : 26.3,
      "estimated_diameter" : {
        "kilometers" : {
          "estimated_diameter_min" : 0.0146067964,
          "estimated_diameter_max" : 0.0326617897
        },
        "meters" : {
          "estimated_diameter_min" : 14.6067964271,
          "estimated_diameter_max" : 32.6617897446
        },
        "miles" : {
          "estimated_diameter_min" : 0.0090762397,
          "estimated_diameter_max" : 0.020295089
        },
        "feet" : {
          "estimated_diameter_min" : 47.92256199,
          "estimated_diameter_max" : 107.1581062656
        }
      },
      "is_potentially_hazardous_asteroid" : false,
      "close_approach_data" : [ {
        "close_approach_date" : "1999-02-08",
        "epoch_date_close_approach" : 918460800000,
        "relative_velocity" : {
          "kilometers_per_second" : "8.5374676863",
          "kilometers_per_hour" : "30734.8836707373",
          "miles_per_hour" : "19097.4614675201"
        },
        "miss_distance" : {
          "astronomical" : "0.018443998",
          "lunar" : "7.1747150421",
          "kilometers" : "2759182.75",
          "miles" : "1714476.75"
        },
        "orbiting_body" : "Earth"
      } ],
      "orbital_data" : {
        "orbit_id" : "7",
        "orbit_determination_date" : "2017-04-06 08:52:33",
        "orbit_uncertainty" : "4",
        "minimum_orbit_intersection" : ".00051595",
        "jupiter_tisserand_invariant" : "6.428",
        "epoch_osculation" : "2458000.5",
        "eccentricity" : ".2798584910176992",
        "semi_major_axis" : ".9260166554412511",
        "inclination" : "2.232243381821192",
        "ascending_node_longitude" : "185.4285171251722",
        "orbital_period" : "325.4817361546775",
        "perihelion_distance" : ".6668630315922059",
        "perihelion_argument" : "57.25515291033351",
        "aphelion_distance" : "1.185170279290296",
        "perihelion_time" : "2458028.076018621354",
        "mean_anomaly" : "329.4994661729049",
        "mean_motion" : "1.106052844172241",
        "equinox" : "J2000"
      }
    }, {
      "links" : {
        "self" : "https://api.nasa.gov/neo/rest/v1/neo/3653469?api_key=t0TVs3DtDT2H8Oy2Zy8m2eVrNsAVKAexjcZXUckd"
      },
      "neo_reference_id" : "3653469",
      "name" : "(2013 VM4)",
      "nasa_jpl_url" : "http://ssd.jpl.nasa.gov/sbdb.cgi?sstr=3653469",
      "absolute_magnitude_h" : 20.5,
      "estimated_diameter" : {
        "kilometers" : {
          "estimated_diameter_min" : 0.2111324448,
          "estimated_diameter_max" : 0.4721064988
        },
        "meters" : {
          "estimated_diameter_min" : 211.1324447897,
          "estimated_diameter_max" : 472.1064988055
        },
        "miles" : {
          "estimated_diameter_min" : 0.1311915784,
          "estimated_diameter_max" : 0.2933532873
        },
        "feet" : {
          "estimated_diameter_min" : 692.6917701639,
          "estimated_diameter_max" : 1548.9058855411
        }
      },
      "is_potentially_hazardous_asteroid" : false,
      "close_approach_data" : [ {
        "close_approach_date" : "1999-02-08",
        "epoch_date_close_approach" : 918460800000,
        "relative_velocity" : {
          "kilometers_per_second" : "6.7210645116",
          "kilometers_per_hour" : "24195.8322417927",
          "miles_per_hour" : "15034.3492060184"
        },
        "miss_distance" : {
          "astronomical" : "0.4907370865",
          "lunar" : "190.8967285156",
          "kilometers" : "73413224",
          "miles" : "45616860"
        },
        "orbiting_body" : "Earth"
      } ],
      "orbital_data" : {
        "orbit_id" : "26",
        "orbit_determination_date" : "2017-04-06 08:43:50",
        "orbit_uncertainty" : "2",
        "minimum_orbit_intersection" : ".364761",
        "jupiter_tisserand_invariant" : "4.153",
        "epoch_osculation" : "2458000.5",
        "eccentricity" : ".254564119693983",
        "semi_major_axis" : "1.670072586070782",
        "inclination" : "18.71618543780354",
        "ascending_node_longitude" : "195.4380717578054",
        "orbital_period" : "788.3180083441122",
        "perihelion_distance" : "1.24493202837262",
        "perihelion_argument" : "249.7645141939759",
        "aphelion_distance" : "2.095213143768945",
        "perihelion_time" : "2458239.407541658060",
        "mean_anomaly" : "250.8984520376979",
        "mean_motion" : ".4566684969637974",
        "equinox" : "J2000"
      }
    }, {
      "links" : {
        "self" : "https://api.nasa.gov/neo/rest/v1/neo/3342249?api_key=t0TVs3DtDT2H8Oy2Zy8m2eVrNsAVKAexjcZXUckd"
      },
      "neo_reference_id" : "3342249",
      "name" : "(2006 SC)",
      "nasa_jpl_url" : "http://ssd.jpl.nasa.gov/sbdb.cgi?sstr=3342249",
      "absolute_magnitude_h" : 25.1,
      "estimated_diameter" : {
        "kilometers" : {
          "estimated_diameter_min" : 0.0253837029,
          "estimated_diameter_max" : 0.0567596853
        },
        "meters" : {
          "estimated_diameter_min" : 25.3837029364,
          "estimated_diameter_max" : 56.7596852866
        },
        "miles" : {
          "estimated_diameter_min" : 0.0157726969,
          "estimated_diameter_max" : 0.0352688224
        },
        "feet" : {
          "estimated_diameter_min" : 83.279867942,
          "estimated_diameter_max" : 186.2194458756
        }
      },
      "is_potentially_hazardous_asteroid" : false,
      "close_approach_data" : [ {
        "close_approach_date" : "1999-02-08",
        "epoch_date_close_approach" : 918460800000,
        "relative_velocity" : {
          "kilometers_per_second" : "7.9800807077",
          "kilometers_per_hour" : "28728.2905477924",
          "miles_per_hour" : "17850.6425350991"
        },
        "miss_distance" : {
          "astronomical" : "0.3790463137",
          "lunar" : "147.4490203857",
          "kilometers" : "56704524",
          "miles" : "35234556"
        },
        "orbiting_body" : "Earth"
      } ],
      "orbital_data" : {
        "orbit_id" : "16",
        "orbit_determination_date" : "2017-04-06 09:08:09",
        "orbit_uncertainty" : "6",
        "minimum_orbit_intersection" : ".000115451",
        "jupiter_tisserand_invariant" : "5.527",
        "epoch_osculation" : "2458000.5",
        "eccentricity" : ".350002123407463",
        "semi_major_axis" : "1.113067101726069",
        "inclination" : "10.42772346774879",
        "ascending_node_longitude" : "350.8239921897073",
        "orbital_period" : "428.9240983484254",
        "perihelion_distance" : ".7234912526269541",
        "perihelion_argument" : "265.1946670008451",
        "aphelion_distance" : "1.502642950825184",
        "perihelion_time" : "2458214.907827060367",
        "mean_anomaly" : "180.0455091263456",
        "mean_motion" : ".839309335582174",
        "equinox" : "J2000"
      }
    } ]
  }
}